[
    {
        "Altitude(m)": 569876.3551337472,
        "Argument of Periapsis(deg)": 0.019868973332140504,
        "Eccentricity": 0.0,
        "Inclination(deg)": 53.0,
        "Latitude(deg)": -48.15962418016462,
        "Longitude(deg)": 169.44560474045446,
        "Mean Anomaly(deg)": 248.4566786027328,
        "RAAN(deg)": 34.97043010558405,
        "Satellite Name": "Starlink Shell 1 167",
        "Satellite Number": 167,
        "Semi-Major Axis(m)": 6931778.249405717,
        "Time(s)": 570
    },
    {
        "Altitude(m)": 569985.2723924664,
        "Argument of Periapsis(deg)": 0.02021755181165174,
        "Eccentricity": 0.0,
        "Inclination(deg)": 53.0,
        "Latitude(deg)": -48.429883064150296,
        "Longitude(deg)": 170.24917361821028,
        "Mean Anomaly(deg)": 249.08350980628947,
        "RAAN(deg)": 34.96991133550657,
        "Satellite Name": "Starlink Shell 1 167",
        "Satellite Number": 167,
        "Semi-Major Axis(m)": 6931778.249405717,
        "Time(s)": 580
    },
    {
        "Altitude(m)": 570091.4491929614,
        "Argument of Periapsis(deg)": 0.020566130291162974,
        "Eccentricity": 0.0,
        "Inclination(deg)": 53.0,
        "Latitude(deg)": -48.6938598677596,
        "Longitude(deg)": 171.06162581192538,
        "Mean Anomaly(deg)": 249.71034100984622,
        "RAAN(deg)": 34.969392565429104,
        "Satellite Name": "Starlink Shell 1 167",
        "Satellite Number": 167,
        "Semi-Major Axis(m)": 6931778.249405717,
        "Time(s)": 590
    },
    {
        "Altitude(m)": 570194.8434028843,
        "Argument of Periapsis(deg)": 0.020914708770674213,
        "Eccentricity": 0.0,
        "Inclination(deg)": 53.0,
        "Latitude(deg)": -48.95143150163041,
        "Longitude(deg)": 171.88292293628302,
        "Mean Anomaly(deg)": 250.33717221340294,
        "RAAN(deg)": 34.968873795351634,
        "Satellite Name": "Starlink Shell 1 167",
        "Satellite Number": 167,
        "Semi-Major Axis(m)": 6931778.249405717,
        "Time(s)": 600
    },
    {
        "Altitude(m)": 570295.4139761319,
        "Argument of Periapsis(deg)": 0.021263287250185448,
        "Eccentricity": 0.0,
        "Inclination(deg)": 53.0,
        "Latitude(deg)": -49.20247483233294,
        "Longitude(deg)": 172.71301400893904,
        "Mean Anomaly(deg)": 250.96400341695963,
        "RAAN(deg)": 34.96835502527416,
        "Satellite Name": "Starlink Shell 1 167",
        "Satellite Number": 167,
        "Semi-Major Axis(m)": 6931778.249405717,
        "Time(s)": 610
    },
    {
        "Altitude(m)": 570393.1209707557,
        "Argument of Periapsis(deg)": 0.021611865729696686,
        "Eccentricity": 0.0,
        "Inclination(deg)": 53.0,
        "Latitude(deg)": -49.44686687473507,
        "Longitude(deg)": 173.55183545002276,
        "Mean Anomaly(deg)": 251.59083462051635,
        "RAAN(deg)": 34.96783625519669,
        "Satellite Name": "Starlink Shell 1 167",
        "Satellite Number": 167,
        "Semi-Major Axis(m)": 6931778.249405717,
        "Time(s)": 620
    },
    {
        "Altitude(m)": 570487.9255663736,
        "Argument of Periapsis(deg)": 0.02196044420920792,
        "Eccentricity": 0.0,
        "Inclination(deg)": 53.0,
        "Latitude(deg)": -49.68448499511571,
        "Longitude(deg)": 174.39930942164582,
        "Mean Anomaly(deg)": 252.21766582407304,
        "RAAN(deg)": 34.96731748511921,
        "Satellite Name": "Starlink Shell 1 167",
        "Satellite Number": 167,
        "Semi-Major Axis(m)": 6931778.249405717,
        "Time(s)": 630
    },
    {
        "Altitude(m)": 570579.7900810896,
        "Argument of Periapsis(deg)": 0.02230902268871916,
        "Eccentricity": 0.0,
        "Inclination(deg)": 53.0,
        "Latitude(deg)": -49.91520712477893,
        "Longitude(deg)": 175.25534471446107,
        "Mean Anomaly(deg)": 252.8444970276298,
        "RAAN(deg)": 34.96679871504174,
        "Satellite Name": "Starlink Shell 1 167",
        "Satellite Number": 167,
        "Semi-Major Axis(m)": 6931778.249405717,
        "Time(s)": 640
    },
    {
        "Altitude(m)": 570668.6779878987,
        "Argument of Periapsis(deg)": 0.022657601168230398,
        "Eccentricity": 0.0,
        "Inclination(deg)": 53.0,
        "Latitude(deg)": -50.138911983802785,
        "Longitude(deg)": 176.1198351431539,
        "Mean Anomaly(deg)": 253.4713282311865,
        "RAAN(deg)": 34.96627994496427,
        "Satellite Name": "Starlink Shell 1 167",
        "Satellite Number": 167,
        "Semi-Major Axis(m)": 6931778.249405717,
        "Time(s)": 650
    },
    {
        "Altitude(m)": 570754.5539305961,
        "Argument of Periapsis(deg)": 0.023006179647741636,
        "Eccentricity": 0.0,
        "Inclination(deg)": 53.0,
        "Latitude(deg)": -50.35547931447458,
        "Longitude(deg)": 176.9926596582387,
        "Mean Anomaly(deg)": 254.0981594347432,
        "RAAN(deg)": 34.965761174886794,
        "Satellite Name": "Starlink Shell 1 167",
        "Satellite Number": 167,
        "Semi-Major Axis(m)": 6931778.249405717,
        "Time(s)": 660
    },
    {
        "Altitude(m)": 570837.3837391544,
        "Argument of Periapsis(deg)": 0.023354758127252868,
        "Eccentricity": 0.0,
        "Inclination(deg)": 53.0,
        "Latitude(deg)": -50.56479012384285,
        "Longitude(deg)": 177.87368249823413,
        "Mean Anomaly(deg)": 254.72499063829994,
        "RAAN(deg)": 34.96524240480932,
        "Satellite Name": "Starlink Shell 1 167",
        "Satellite Number": 167,
        "Semi-Major Axis(m)": 6931778.249405717,
        "Time(s)": 670
    },
    {
        "Altitude(m)": 570917.1344445919,
        "Argument of Periapsis(deg)": 0.023703336606764106,
        "Eccentricity": 0.0,
        "Inclination(deg)": 53.0,
        "Latitude(deg)": -50.766726934705694,
        "Longitude(deg)": 178.76275187443838,
        "Mean Anomaly(deg)": 255.35182184185663,
        "RAAN(deg)": 34.96472363473185,
        "Satellite Name": "Starlink Shell 1 167",
        "Satellite Number": 167,
        "Semi-Major Axis(m)": 6931778.249405717,
        "Time(s)": 680
    },
    {
        "Altitude(m)": 570993.7742933063,
        "Argument of Periapsis(deg)": 0.024051915086275345,
        "Eccentricity": 0.0,
        "Inclination(deg)": 53.0,
        "Latitude(deg)": -50.961174044248516,
        "Longitude(deg)": 179.65970021913887,
        "Mean Anomaly(deg)": 255.97865304541332,
        "RAAN(deg)": 34.96420486465438,
        "Satellite Name": "Starlink Shell 1 167",
        "Satellite Number": 167,
        "Semi-Major Axis(m)": 6931778.249405717,
        "Time(s)": 690
    },
    {
        "Altitude(m)": 571067.2727608602,
        "Argument of Periapsis(deg)": 0.024400493565786583,
        "Eccentricity": 0.0,
        "Inclination(deg)": 53.0,
        "Latitude(deg)": -51.14801778942093,
        "Longitude(deg)": -179.43565551059757,
        "Mean Anomaly(deg)": 256.6054842489701,
        "RAAN(deg)": 34.9636860945769,
        "Satellite Name": "Starlink Shell 1 167",
        "Satellite Number": 167,
        "Semi-Major Axis(m)": 6931778.249405717,
        "Time(s)": 700
    },
    {
        "Altitude(m)": 571137.6005652726,
        "Argument of Periapsis(deg)": 0.024749072045297815,
        "Eccentricity": 0.0,
        "Inclination(deg)": 53.0,
        "Latitude(deg)": -51.327146818024836,
        "Longitude(deg)": -178.5235149815541,
        "Mean Anomaly(deg)": 257.2323154525268,
        "RAAN(deg)": 34.96316732449943,
        "Satellite Name": "Starlink Shell 1 167",
        "Satellite Number": 167,
        "Semi-Major Axis(m)": 6931778.249405717,
        "Time(s)": 710
    },
    {
        "Altitude(m)": 571204.7296796952,
        "Argument of Periapsis(deg)": 0.025097650524809053,
        "Eccentricity": 0.0,
        "Inclination(deg)": 53.0,
        "Latitude(deg)": -51.49845236438192,
        "Longitude(deg)": -177.60409405499485,
        "Mean Anomaly(deg)": 257.85914665608345,
        "RAAN(deg)": 34.96264855442196,
        "Satellite Name": "Starlink Shell 1 167",
        "Satellite Number": 167,
        "Semi-Major Axis(m)": 6931778.249405717,
        "Time(s)": 720
    },
    {
        "Altitude(m)": 571268.633344598,
        "Argument of Periapsis(deg)": 0.02544622900432029,
        "Eccentricity": 0.0,
        "Inclination(deg)": 53.0,
        "Latitude(deg)": -51.66182852832827,
        "Longitude(deg)": -176.677624287802,
        "Mean Anomaly(deg)": 258.48597785964023,
        "RAAN(deg)": 34.962129784344484,
        "Satellite Name": "Starlink Shell 1 167",
        "Satellite Number": 167,
        "Semi-Major Axis(m)": 6931778.249405717,
        "Time(s)": 730
    },
    {
        "Altitude(m)": 571329.2860793895,
        "Argument of Periapsis(deg)": 0.02579480748383153,
        "Eccentricity": 0.0,
        "Inclination(deg)": 53.0,
        "Latitude(deg)": -51.81717255617983,
        "Longitude(deg)": -175.74435387297794,
        "Mean Anomaly(deg)": 259.11280906319695,
        "RAAN(deg)": 34.961611014267014,
        "Satellite Name": "Starlink Shell 1 167",
        "Satellite Number": 167,
        "Semi-Major Axis(m)": 6931778.249405717,
        "Time(s)": 740
    },
    {
        "Altitude(m)": 571386.6636934524,
        "Argument of Periapsis(deg)": 0.026143385963342765,
        "Eccentricity": 0.0,
        "Inclination(deg)": 53.0,
        "Latitude(deg)": -51.964385122221664,
        "Longitude(deg)": -174.804546990211,
        "Mean Anomaly(deg)": 259.73964026675367,
        "RAAN(deg)": 34.961092244189544,
        "Satellite Name": "Starlink Shell 1 167",
        "Satellite Number": 167,
        "Semi-Major Axis(m)": 6931778.249405717,
        "Time(s)": 750
    }
]